{
  "type": "FeatureCollection",
  "features": [
    {
      "type": "Feature",
      "properties": { "elevation": 880 },
      "geometry": {
        "type": "LineString",
        "coordinates": [
          [-43.740, -20.510], [-43.725, -20.515], [-43.710, -20.520],
          [-43.695, -20.522], [-43.680, -20.518], [-43.665, -20.512],
          [-43.650, -20.508]
        ]
      }
    },
    {
      "type": "Feature",
      "properties": { "elevation": 900 },
      "geometry": {
        "type": "LineString",
        "coordinates": [
          [-43.738, -20.516], [-43.722, -20.521], [-43.707, -20.527],
          [-43.692, -20.530], [-43.677, -20.526], [-43.662, -20.519],
          [-43.648, -20.514]
        ]
      }
    },
    {
      "type": "Feature",
      "properties": { "elevation": 920 },
      "geometry": {
        "type": "LineString",
        "coordinates": [
          [-43.736, -20.522], [-43.720, -20.528], [-43.705, -20.534],
          [-43.690, -20.538], [-43.675, -20.533], [-43.660, -20.526],
          [-43.646, -20.520]
        ]
      }
    },
    {
      "type": "Feature",
      "properties": { "elevation": 940 },
      "geometry": {
        "type": "LineString",
        "coordinates": [
          [-43.733, -20.528], [-43.718, -20.535], [-43.703, -20.541],
          [-43.688, -20.546], [-43.673, -20.541], [-43.658, -20.533],
          [-43.644, -20.527]
        ]
      }
    },
    {
      "type": "Feature",
      "properties": { "elevation": 960 },
      "geometry": {
        "type": "LineString",
        "coordinates": [
          [-43.730, -20.535], [-43.715, -20.542], [-43.700, -20.548],
          [-43.685, -20.554], [-43.670, -20.549], [-43.655, -20.540],
          [-43.641, -20.534]
        ]
      }
    },
    {
      "type": "Feature",
      "properties": { "elevation": 980 },
      "geometry": {
        "type": "LineString",
        "coordinates": [
          [-43.727, -20.542], [-43.712, -20.549], [-43.697, -20.556],
          [-43.682, -20.562], [-43.667, -20.557], [-43.652, -20.548],
          [-43.638, -20.541]
        ]
      }
    },
    {
      "type": "Feature",
      "properties": { "elevation": 1000 },
      "geometry": {
        "type": "LineString",
        "coordinates": [
          [-43.724, -20.549], [-43.709, -20.556], [-43.694, -20.563],
          [-43.679, -20.570], [-43.664, -20.564], [-43.649, -20.555],
          [-43.635, -20.548]
        ]
      }
    },
    {
      "type": "Feature",
      "properties": { "elevation": 1020 },
      "geometry": {
        "type": "LineString",
        "coordinates": [
          [-43.720, -20.557], [-43.705, -20.564], [-43.690, -20.572],
          [-43.675, -20.578], [-43.660, -20.572], [-43.645, -20.563],
          [-43.631, -20.556]
        ]
      }
    },
    {
      "type": "Feature",
      "properties": { "elevation": 1040 },
      "geometry": {
        "type": "LineString",
        "coordinates": [
          [-43.716, -20.565], [-43.701, -20.572], [-43.686, -20.580],
          [-43.671, -20.587], [-43.656, -20.580], [-43.641, -20.570],
          [-43.627, -20.563]
        ]
      }
    },
    {
      "type": "Feature",
      "properties": { "elevation": 1060 },
      "geometry": {
        "type": "LineString",
        "coordinates": [
          [-43.712, -20.573], [-43.697, -20.580], [-43.682, -20.588],
          [-43.667, -20.595], [-43.652, -20.588], [-43.637, -20.578],
          [-43.623, -20.571]
        ]
      }
    },
    {
      "type": "Feature",
      "properties": { "elevation": 1080 },
      "geometry": {
        "type": "LineString",
        "coordinates": [
          [-43.708, -20.581], [-43.693, -20.589], [-43.678, -20.597],
          [-43.663, -20.604], [-43.648, -20.596], [-43.633, -20.586],
          [-43.619, -20.579]
        ]
      }
    },
    {
      "type": "Feature",
      "properties": { "elevation": 1100 },
      "geometry": {
        "type": "LineString",
        "coordinates": [
          [-43.704, -20.589], [-43.689, -20.597], [-43.674, -20.606],
          [-43.659, -20.613], [-43.644, -20.605], [-43.629, -20.594],
          [-43.615, -20.587]
        ]
      }
    },
    {
      "type": "Feature",
      "properties": { "elevation": 1120 },
      "geometry": {
        "type": "LineString",
        "coordinates": [
          [-43.700, -20.597], [-43.685, -20.605], [-43.670, -20.614],
          [-43.655, -20.622], [-43.640, -20.613], [-43.625, -20.602],
          [-43.611, -20.595]
        ]
      }
    },
    {
      "type": "Feature",
      "properties": { "elevation": 1140 },
      "geometry": {
        "type": "LineString",
        "coordinates": [
          [-43.696, -20.605], [-43.681, -20.613], [-43.666, -20.622],
          [-43.651, -20.631], [-43.636, -20.621], [-43.621, -20.610],
          [-43.607, -20.603]
        ]
      }
    },
    {
      "type": "Feature",
      "properties": { "elevation": 1160 },
      "geometry": {
        "type": "LineString",
        "coordinates": [
          [-43.692, -20.613], [-43.677, -20.622], [-43.662, -20.631],
          [-43.647, -20.640], [-43.632, -20.630], [-43.617, -20.618],
          [-43.603, -20.611]
        ]
      }
    }
  ]
}
